satname,norad_id,inclination_deg,eccentricity,mean_motion_rev_per_day,perigee_km,apogee_km,l1,l2
STARLINK-1319,45379,53.0563,0.0002541,15.37814338,450.8382053205014,454.3095725942703,1 45379U 20019V   25320.70527250  .00075641  00000+0  19962-2 0  9991,2 45379  53.0563 310.4534 0002541  75.5247 284.6038 15.37814338312756
STARLINK-1266,45383,53.0549,0.000147,15.0639133,546.2201002228521,548.2561605111796,1 45383U 20019Z   25320.62771542  .00002399  00000+0  17996-3 0  9998,2 45383  53.0549 294.1759 0001470  88.6439 271.4719 15.06391330312961
STARLINK-1267,45384,53.0548,0.0001545,15.06437649,546.0262230538956,548.1661201039142,1 45384U 20019AA  25320.21496656  .00021351  00000+0  14465-2 0  9990,2 45384  53.0548 296.6850 0001545  82.8745 277.2420 15.06437649312898
STARLINK-1272,45386,53.0535,0.00057,15.36144317,453.62734240556256,461.4199955682079,1 45386U 20019AC  25320.77355185  .00041882  00000+0  11760-2 0  9990,2 45386  53.0535 288.1194 0005700  55.6400 304.5141 15.36144317313060
STARLINK-1274,45387,53.0374,0.0005569,15.30922939,469.24192322437375,476.8727834951469,1 45387U 20019AD  25320.20161757  .00032568  00000+0  10820-2 0  9996,2 45387  53.0374 278.7119 0005569  10.8240 349.2879 15.30922939313143
STARLINK-1280,45388,53.0548,0.0005727,15.41747791,437.04554712039226,444.8561303308679,1 45388U 20019AE  25320.26921759  .00047530  00000+0  11095-2 0  9999,2 45388  53.0548 309.3511 0005727  45.5136 314.6336 15.41747791312718
STARLINK-1283,45389,53.0545,0.0006927,15.32403454,463.9010725903472,473.38660276286464,1 45389U 20019AF  25320.65125308  .00039491  00000+0  12491-2 0  9997,2 45389  53.0545 287.6958 0006927  57.0427 303.1238 15.32403454313061
STARLINK-1284,45390,53.0548,0.000138,15.06395962,546.2682340454721,548.179633663216,1 45390U 20019AG  25320.63139604  .00003005  00000+0  22056-3 0  9992,2 45390  53.0548 294.1612 0001380  82.7601 277.3545 15.06395962312969
STARLINK-1292,45394,53.0348,0.0002685,16.2416445,206.5006974965927,210.03759759782588,1 45394U 20019AL  25320.83183029  .02385062  11921-4  85869-3 0  9996,2 45394  53.0348 231.6207 0002685 175.8905 184.2158 16.24164450313590
STARLINK-1297,45395,53.054,0.0001471,15.06404988,546.1775539547771,548.2149870029507,1 45395U 20019AM  25320.66825661  .00006455  00000+0  45178-3 0  9997,2 45395  53.0540 293.9921 0001471  86.7008 273.4149 15.06404988312159
STARLINK-1307,45397,53.0542,0.0001472,15.06395005,546.2074533749546,548.2462804973802,1 45397U 20019AP  25320.66089659  .00005724  00000+0  40290-3 0  9996,2 45397  53.0542 294.0231 0001472  91.5174 268.5984 15.06395005312799
STARLINK-1255,45399,53.0487,0.0006021,15.32403851,464.5202091154497,472.76510117617727,1 45399U 20019AR  25320.13754918  .00022274  00000+0  71131-3 0  9994,2 45399  53.0487 281.1733 0006021  58.5273 301.6315 15.32403851312910
STARLINK-1260,45404,53.0569,0.000158,15.06448844,545.9676807376954,548.1560435781375,1 45404U 20019AW  25320.59544224  .00015634  00000+0  10647-2 0  9994,2 45404  53.0569 284.3150 0001580  93.6040 266.5130 15.06448844312818
STARLINK-1263,45405,53.0564,0.0001305,15.06383419,546.358612162644,548.1661413999836,1 45405U 20019AX  25320.18263037  .00002896  00000+0  21331-3 0  9999,2 45405  53.0564 286.1723 0001305  87.4682 272.6457 15.06383419312757
STARLINK-1265,45406,53.0543,0.0001352,15.06410451,546.2432245191885,548.1158301081732,1 45406U 20019AY  25320.19000592  .00008825  00000+0  61041-3 0  9996,2 45406  53.0543 286.1400 0001352  85.6854 274.4290 15.06410451312752
STARLINK-1278,45408,53.0563,0.0005672,15.35241308,456.3251305896374,464.0825444357124,1 45408U 20019BA  25320.70533060  .00053491  00000+0  15406-2 0  9998,2 45408  53.0563 308.4677 0005672  41.6437 318.4995 15.35241308312495
STARLINK-1296,45412,53.0535,0.0001245,15.0639862,546.3535810207131,548.0779938647865,1 45412U 20019BE  25320.19368564  .00004367  00000+0  31192-3 0  9990,2 45412  53.0535 286.1200 0001245  86.6768 273.4364 15.06398620312758
STARLINK-1298,45413,53.0466,0.0008599,15.5520092,395.73877372481184,407.3985114889674,1 45413U 20019BF  25320.84429274  .00053183  00000+0  77423-3 0  9996,2 45413  53.0466 253.7828 0008599  20.2976 339.8374 15.55200920313367
STARLINK-1309,45414,53.0543,0.0001452,15.06386595,546.2470760611595,548.2582092133816,1 45414U 20019BG  25320.60650842 -.00000618  00000+0 -22595-4 0  9996,2 45414  53.0543 284.2689 0001452  88.1219 271.9936 15.06386595312809
STARLINK-1316,45415,53.0585,0.0001818,15.06419482,545.8928315449439,548.4108665704616,1 45415U 20019BH  25320.63228946  .00005544  00000+0  39056-3 0  9996,2 45415  53.0585 284.1519 0001818 101.5883 258.5310 15.06419482312843
STARLINK-1318,45416,53.0495,0.0005792,15.62651173,376.08809732668215,383.91672602116614,1 45416U 20019BJ  25320.81830684  .00075389  00000+0  82430-3 0  9993,2 45416  53.0495 244.5728 0005792  91.6558 268.5119 15.62651173313407
STARLINK-1286,45417,53.0547,0.0003628,15.37583104,450.78027925426886,455.7371399811682,1 45417U 20019BK  25320.26500218  .00049991  00000+0  13371-2 0  9997,2 45417  53.0547 310.8109 0003628  53.0084 307.1251 15.37583104312695
STARLINK-1308,45419,53.0541,0.0001132,15.06419597,546.3675539490696,547.935439264701,1 45419U 20019BM  25320.26833970  .00014622  00000+0  99799-3 0  9995,2 45419  53.0541 315.7857 0001132  91.0380 269.0739 15.06419597312376
STARLINK-1329,45531,53.0561,0.0001554,15.06391585,546.1611456475484,548.3135519951611,1 45531U 20025A   25320.83413487  .00002470  00000+0  18470-3 0  9992,2 45531  53.0561 253.2468 0001554  93.7062 266.4105 15.06391585308088
STARLINK-1338,45532,53.0563,0.0001771,15.06421313,545.9197697717073,548.3727050944053,1 45532U 20025B   25320.84518082  .00023158  00000+0  15676-2 0  9991,2 45532  53.0563 253.1951 0001771  93.0724 267.0467 15.06421313308087
STARLINK-1350,45535,53.0737,0.0002338,15.32872116,465.6477539766338,468.8486560985084,1 45535U 20025E   25320.39733142  .00016096  00000+0  51036-3 0  9994,2 45535  53.0737 203.8966 0002338  87.8641 272.2628 15.32872116308762
STARLINK-1362,45538,53.0542,0.000179,15.06382417,546.0258007868788,548.5050948631997,1 45538U 20025H   25320.81102354  .00004521  00000+0  32239-3 0  9993,2 45538  53.0542 253.0703 0001790  78.1623 281.9567 15.06382417308084
STARLINK-1368,45540,53.0543,0.0002,15.06414907,545.7808099329386,548.5509310811403,1 45540U 20025K   25320.81569029  .00005841  00000+0  41053-3 0  9992,2 45540  53.0543 253.3291 0002000  89.1362 270.9856 15.06414907308078
STARLINK-1371,45542,53.0552,0.0002284,15.06404013,545.6175118970732,548.7810055000455,1 45542U 20025M   25320.78619561  .00004613  00000+0  32838-3 0  9994,2 45542  53.0552 253.4606 0002284  90.1227 270.0023 15.06404013308071
STARLINK-1372,45543,53.0553,0.0002029,15.06407743,545.7826784527542,548.5929752674929,1 45543U 20025N   25320.82307854  .00007488  00000+0  52098-3 0  9992,2 45543  53.0553 253.2954 0002029  94.4695 265.6526 15.06407743307171
STARLINK-1373,45544,53.0536,0.0001352,15.063845,546.3227500654057,548.195377161006,1 45544U 20025P   25320.84148640 -.00003115  00000+0 -19038-3 0  9993,2 45544  53.0536 253.2115 0001352  92.2379 267.8765 15.06384500308080
STARLINK-1294,45551,53.0476,0.0007079,15.62550906,375.50722478507396,385.07580787849656,1 45551U 20025W   25318.90073644  .00082228  00000+0  90098-3 0  9991,2 45551  53.0476 189.4516 0007079 104.6578 255.5221 15.62550906308816
STARLINK-1325,45554,53.0519,0.0003184,15.6706133,365.169151365586,369.46465641158284,1 45554U 20025Z   25320.31395863  .00240419  00000+0  21529-2 0  9992,2 45554  53.0519 175.1953 0003184 221.7072 138.3701 15.67061330309148
STARLINK-1327,45555,53.0541,0.0001972,15.06407421,545.823139484999,548.5544879859362,1 45555U 20025AA  25320.74750044 -.00001924  00000+0 -11024-3 0  9994,2 45555  53.0541 233.6359 0001972  80.4509 279.6703 15.06407421308342
STARLINK-1356,45564,53.0538,0.0001524,15.06427996,546.0703455153343,548.1811656032287,1 45564U 20025AK  25320.48578881  .00010956  00000+0  75268-3 0  9995,2 45564  53.0538 234.8091 0001524  92.8684 267.2479 15.06427996308306
STARLINK-1357,45565,53.0615,0.0008851,15.34829958,455.37191588764745,467.47930962474857,1 45565U 20025AL  25320.68309676  .00025938  00000+0  76484-3 0  9999,2 45565  53.0615 215.8702 0008851  66.3790 293.8140 15.34829958308591
STARLINK-1361,45567,53.0541,0.000176,15.06414092,545.9495145797628,548.387222069412,1 45567U 20025AN  25320.76960956  .00009611  00000+0  66300-3 0  9990,2 45567  53.0541 233.5331 0001760  92.2169 267.9021 15.06414092308358
STARLINK-1363,45568,53.054,0.0005501,15.44207815,429.95955076582504,437.4539412551867,1 45568U 20025AP  25320.74190262  .00048956  00000+0  10518-2 0  9998,2 45568  53.0540 227.1168 0005501 118.0445 242.1118 15.44207815308432
STARLINK-1366,45569,53.0521,0.0004144,15.42438355,436.0903876137163,441.74036062138475,1 45569U 20025AQ  25320.71820810  .00027456  00000+0  63206-3 0  9990,2 45569  53.0521 226.8475 0004144 121.0799 239.0613 15.42438355308435
STARLINK-1376,45570,53.0545,0.0001377,15.06383181,546.3094786358843,548.2167338251411,1 45570U 20025AR  25320.03612563 -.00002690  00000+0 -16183-3 0  9998,2 45570  53.0545 236.8305 0001377  88.7732 271.3415 15.06383181308230
STARLINK-1320,45572,53.0566,0.0010079,15.4490973,424.77974799637013,438.50690317668796,1 45572U 20025AT  25320.32076871  .00034964  00000+0  73652-3 0  9999,2 45572  53.0566 174.7182 0010079  78.5947 281.6191 15.44909730309155
STARLINK-1321,45573,53.0538,0.0001523,15.06447493,546.0112941403895,548.1207109749694,1 45573U 20025AU  25319.95593957  .00020171  00000+0  13674-2 0  9998,2 45573  53.0538 227.1899 0001523  95.8366 264.2797 15.06447493308063
STARLINK-1328,45576,53.0482,0.0010407,15.74507075,339.03637769351917,353.03206767641495,1 45576U 20025AX  25320.91668980  .00147236  00000+0  97568-3 0  9995,2 45576  53.0482 191.5607 0010407 100.4137 182.1866 15.74507075  5961
